ORBCOMM FM103 [+]       
1 40091U 14040F   24078.88114356  .00000919  00000+0  24270-3 0  9996
2 40091  47.0077   5.0767 0002265 337.5999  22.4786 14.56381367497694
ORBCOMM FM114 [+]       
1 41179U 15081A   24078.64092330  .00000986  00000+0  25741-3 0  9999
2 41179  47.0017 275.5112 0001098  52.1663 307.9321 14.56386176438026
ORBCOMM FM119 [-]       
1 41180U 15081B   24078.40419661  .00000850  00000+0  22725-3 0  9994
2 41180  47.0000 185.8117 0001004 161.8881 198.2040 14.56370996439242
ORBCOMM FM105 [-]       
1 41181U 15081C   24078.20950501  .00000314  00000+0  13580-3 0  9990
2 41181  47.0010 148.7891 0000885  73.4649 286.6328 14.44273551434812
ORBCOMM FM110 [+]       
1 41182U 15081D   24078.68655622  .00000873  00000+0  23225-3 0  9996
2 41182  47.0006 274.7075 0002260 239.2924 120.7738 14.56381121437901
ORBCOMM FM118 [+]       
1 41183U 15081E   24078.66376597  .00000841  00000+0  22516-3 0  9993
2 41183  47.0028 275.1087 0002365 237.5965 122.4692 14.56383844438000
ORBCOMM FM112 [+]       
1 41184U 15081F   24078.38218838  .00001076  00000+0  27772-3 0  9996
2 41184  46.9983 185.1477 0000516 155.5930 204.4979 14.56370279439186
ORBCOMM FM113 [+]       
1 41185U 15081G   24078.42784012  .00001050  00000+0  27192-3 0  9992
2 41185  47.0002 185.1892 0000786 193.6691 166.4173 14.56370421439179
